{
  "links" : {
    "next" : "https://api.nasa.gov/neo/rest/v1/feed?start_date=2014-12-23&end_date=2014-12-23&detailed=true&api_key=t0TVs3DtDT2H8Oy2Zy8m2eVrNsAVKAexjcZXUckd",
    "prev" : "https://api.nasa.gov/neo/rest/v1/feed?start_date=2014-12-21&end_date=2014-12-21&detailed=true&api_key=t0TVs3DtDT2H8Oy2Zy8m2eVrNsAVKAexjcZXUckd",
    "self" : "https://api.nasa.gov/neo/rest/v1/feed?start_date=2014-12-22&end_date=2014-12-22&detailed=true&api_key=t0TVs3DtDT2H8Oy2Zy8m2eVrNsAVKAexjcZXUckd"
  },
  "element_count" : 7,
  "near_earth_objects" : {
    "2014-12-22" : [ {
      "links" : {
        "self" : "https://api.nasa.gov/neo/rest/v1/neo/3621604?api_key=t0TVs3DtDT2H8Oy2Zy8m2eVrNsAVKAexjcZXUckd"
      },
      "neo_reference_id" : "3621604",
      "name" : "(2012 YK)",
      "nasa_jpl_url" : "http://ssd.jpl.nasa.gov/sbdb.cgi?sstr=3621604",
      "absolute_magnitude_h" : 23.0,
      "estimated_diameter" : {
        "kilometers" : {
          "estimated_diameter_min" : 0.0667659413,
          "estimated_diameter_max" : 0.1492931834
        },
        "meters" : {
          "estimated_diameter_min" : 66.7659413495,
          "estimated_diameter_max" : 149.2931834393
        },
        "miles" : {
          "estimated_diameter_min" : 0.0414864197,
          "estimated_diameter_max" : 0.0927664547
        },
        "feet" : {
          "estimated_diameter_min" : 219.0483710172,
          "estimated_diameter_max" : 489.807047955
        }
      },
      "is_potentially_hazardous_asteroid" : false,
      "close_approach_data" : [ {
        "close_approach_date" : "2014-12-22",
        "epoch_date_close_approach" : 1419235200000,
        "relative_velocity" : {
          "kilometers_per_second" : "9.2736717769",
          "kilometers_per_hour" : "33385.2183970107",
          "miles_per_hour" : "20744.2763978537"
        },
        "miss_distance" : {
          "astronomical" : "0.0459217832",
          "lunar" : "17.8635730743",
          "kilometers" : "6869801",
          "miles" : "4268696.5"
        },
        "orbiting_body" : "Earth"
      } ],
      "orbital_data" : {
        "orbit_id" : "29",
        "orbit_determination_date" : "2017-04-06 08:47:33",
        "orbit_uncertainty" : "0",
        "minimum_orbit_intersection" : ".0338425",
        "jupiter_tisserand_invariant" : "7.546",
        "epoch_osculation" : "2458000.5",
        "eccentricity" : ".3838117917906527",
        "semi_major_axis" : ".7591374576615511",
        "inclination" : "11.27000633542522",
        "ascending_node_longitude" : "88.66996283068063",
        "orbital_period" : "241.5900582345487",
        "perihelion_distance" : ".4677715498210704",
        "perihelion_argument" : "165.4236141742222",
        "aphelion_distance" : "1.050503365502032",
        "perihelion_time" : "2458080.376978746178",
        "mean_anomaly" : "240.9731138824156",
        "mean_motion" : "1.490127543454179",
        "equinox" : "J2000"
      }
    }, {
      "links" : {
        "self" : "https://api.nasa.gov/neo/rest/v1/neo/3753692?api_key=t0TVs3DtDT2H8Oy2Zy8m2eVrNsAVKAexjcZXUckd"
      },
      "neo_reference_id" : "3753692",
      "name" : "(2016 LO1)",
      "nasa_jpl_url" : "http://ssd.jpl.nasa.gov/sbdb.cgi?sstr=3753692",
      "absolute_magnitude_h" : 25.3,
      "estimated_diameter" : {
        "kilometers" : {
          "estimated_diameter_min" : 0.0231502122,
          "estimated_diameter_max" : 0.0517654482
        },
        "meters" : {
          "estimated_diameter_min" : 23.150212221,
          "estimated_diameter_max" : 51.7654482198
        },
        "miles" : {
          "estimated_diameter_min" : 0.0143848705,
          "estimated_diameter_max" : 0.0321655483
        },
        "feet" : {
          "estimated_diameter_min" : 75.9521422633,
          "estimated_diameter_max" : 169.8341531374
        }
      },
      "is_potentially_hazardous_asteroid" : false,
      "close_approach_data" : [ {
        "close_approach_date" : "2014-12-22",
        "epoch_date_close_approach" : 1419235200000,
        "relative_velocity" : {
          "kilometers_per_second" : "11.6858118536",
          "kilometers_per_hour" : "42068.9226730856",
          "miles_per_hour" : "26139.9925353959"
        },
        "miss_distance" : {
          "astronomical" : "0.240119539",
          "lunar" : "93.4064941406",
          "kilometers" : "35921372",
          "miles" : "22320506"
        },
        "orbiting_body" : "Earth"
      } ],
      "orbital_data" : {
        "orbit_id" : "6",
        "orbit_determination_date" : "2017-04-06 08:25:36",
        "orbit_uncertainty" : "7",
        "minimum_orbit_intersection" : ".034095",
        "jupiter_tisserand_invariant" : "6.089",
        "epoch_osculation" : "2458000.5",
        "eccentricity" : ".06879671376524824",
        "semi_major_axis" : ".9885423931571404",
        "inclination" : "18.33625726162006",
        "ascending_node_longitude" : "248.138290257231",
        "orbital_period" : "358.9974590576151",
        "perihelion_distance" : ".9205339250902952",
        "perihelion_argument" : "208.5552881693953",
        "aphelion_distance" : "1.056550861223986",
        "perihelion_time" : "2458108.149689749601",
        "mean_anomaly" : "252.0496863359784",
        "mean_motion" : "1.002792612919926",
        "equinox" : "J2000"
      }
    }, {
      "links" : {
        "self" : "https://api.nasa.gov/neo/rest/v1/neo/3699888?api_key=t0TVs3DtDT2H8Oy2Zy8m2eVrNsAVKAexjcZXUckd"
      },
      "neo_reference_id" : "3699888",
      "name" : "(2014 WU365)",
      "nasa_jpl_url" : "http://ssd.jpl.nasa.gov/sbdb.cgi?sstr=3699888",
      "absolute_magnitude_h" : 20.8,
      "estimated_diameter" : {
        "kilometers" : {
          "estimated_diameter_min" : 0.1838886721,
          "estimated_diameter_max" : 0.411187571
        },
        "meters" : {
          "estimated_diameter_min" : 183.8886720703,
          "estimated_diameter_max" : 411.1875710413
        },
        "miles" : {
          "estimated_diameter_min" : 0.1142630881,
          "estimated_diameter_max" : 0.2555000322
        },
        "feet" : {
          "estimated_diameter_min" : 603.309310875,
          "estimated_diameter_max" : 1349.040630575
        }
      },
      "is_potentially_hazardous_asteroid" : false,
      "close_approach_data" : [ {
        "close_approach_date" : "2014-12-22",
        "epoch_date_close_approach" : 1419235200000,
        "relative_velocity" : {
          "kilometers_per_second" : "9.7860477957",
          "kilometers_per_hour" : "35229.7720645251",
          "miles_per_hour" : "21890.4103142045"
        },
        "miss_distance" : {
          "astronomical" : "0.331211321",
          "lunar" : "128.8412017822",
          "kilometers" : "49548508",
          "miles" : "30788016"
        },
        "orbiting_body" : "Earth"
      } ],
      "orbital_data" : {
        "orbit_id" : "9",
        "orbit_determination_date" : "2017-04-06 08:37:03",
        "orbit_uncertainty" : "2",
        "minimum_orbit_intersection" : ".305426",
        "jupiter_tisserand_invariant" : "4.198",
        "epoch_osculation" : "2458000.5",
        "eccentricity" : ".2182221381039618",
        "semi_major_axis" : "1.64750129606844",
        "inclination" : "18.84211362965827",
        "ascending_node_longitude" : "85.1732798555344",
        "orbital_period" : "772.3907680287921",
        "perihelion_distance" : "1.287980040711337",
        "perihelion_argument" : "354.822186477262",
        "aphelion_distance" : "2.007022551425543",
        "perihelion_time" : "2457765.446145251205",
        "mean_anomaly" : "109.5551516307249",
        "mean_motion" : ".4660853222245924",
        "equinox" : "J2000"
      }
    } ]
  }
}